[{"OBJECT_NAME":"STARLINK-30174","OBJECT_ID":"2023-119H","EPOCH":"2026-03-09T22:00:01.999584","MEAN_MOTION":15.18511119,"ECCENTRICITY":0.00012658,"INCLINATION":43.0001,"RA_OF_ASC_NODE":79.6041,"ARG_OF_PERICENTER":257.8733,"MEAN_ANOMALY":298.9214,"EPHEMERIS_TYPE":0,"CLASSIFICATION_TYPE":"U","NORAD_CAT_ID":57609,"ELEMENT_SET_NO":999,"REV_AT_EPOCH":577,"BSTAR":0.055377624,"MEAN_MOTION_DOT":0.01257837,"MEAN_MOTION_DDOT":0},{"OBJECT_NAME":"LUCA (RS90S)","OBJECT_ID":"2025-313AR","EPOCH":"2026-03-09T21:15:38.264256","MEAN_MOTION":15.22714188,"ECCENTRICITY":0.00093945,"INCLINATION":97.4002,"RA_OF_ASC_NODE":145.2611,"ARG_OF_PERICENTER":354.1609,"MEAN_ANOMALY":5.9516,"EPHEMERIS_TYPE":0,"CLASSIFICATION_TYPE":"U","NORAD_CAT_ID":67287,"ELEMENT_SET_NO":999,"REV_AT_EPOCH":1085,"BSTAR":0.00052045619,"MEAN_MOTION_DOT":0.00012089,"MEAN_MOTION_DDOT":0}]
